{
  "type": "FeatureCollection",
  "features": [
    {
      "type": "Feature",
      "properties": {
        "norad_id": 22490,
        "name": "SCD 1",
        "group": "resource",
        "lat": -19.258537045414545,
        "lon": 162.7734063156628,
        "alt_km": 727.2180742720902,
        "timestamp": "2025-12-10T05:46:13.453420+00:00",
        "meta_object_name": "SCD 1",
        "meta_object_id": "1993-009B",
        "meta_epoch": "2025-12-09T14:32:21.488928",
        "meta_mean_motion": 14.45995775,
        "meta_eccentricity": 0.004173,
        "meta_inclination": 24.9704,
        "meta_ra_of_asc_node": 298.0332,
        "meta_arg_of_pericenter": 291.7211,
        "meta_mean_anomaly": 229.7743,
        "meta_ephemeris_type": 0,
        "meta_classification_type": "U",
        "meta_norad_cat_id": 22490,
        "meta_element_set_no": 999,
        "meta_rev_at_epoch": 73364,
        "meta_bstar": 0.00017156,
        "meta_mean_motion_dot": 8.13e-06,
        "meta_mean_motion_ddot": 0,
        "tle_line1": "1 22490U 93009B   25343.60580427  .00000813  00000+0  17156-3 0  9991",
        "tle_line2": "2 22490  24.9704 298.0332 0041730 291.7211 229.7743 14.45995775733643"
      },
      "geometry": {
        "type": "Point",
        "coordinates": [
          162.7734063156628,
          -19.258537045414545
        ]
      }
    },
    {
      "type": "Feature",
      "properties": {
        "norad_id": 25397,
        "name": "TECHSAT 1B (GO-32)",
        "group": "resource",
        "lat": -39.085090006095605,
        "lon": -25.215954855741987,
        "alt_km": 817.2775506422313,
        "timestamp": "2025-12-10T05:46:13.453448+00:00",
        "meta_object_name": "TECHSAT 1B (GO-32)",
        "meta_object_id": "1998-043D",
        "meta_epoch": "2025-12-09T16:28:08.761728",
        "meta_mean_motion": 14.24375772,
        "meta_eccentricity": 0.0002137,
        "meta_inclination": 98.9917,
        "meta_ra_of_asc_node": 326.8279,
        "meta_arg_of_pericenter": 62.2471,
        "meta_mean_anomaly": 297.8923,
        "meta_ephemeris_type": 0,
        "meta_classification_type": "U",
        "meta_norad_cat_id": 25397,
        "meta_element_set_no": 999,
        "meta_rev_at_epoch": 42435,
        "meta_bstar": 0.00010194,
        "meta_mean_motion_dot": 1.89e-06,
        "meta_mean_motion_ddot": 0,
        "tle_line1": "1 25397U 98043D   25343.68621252  .00000189  00000+0  10194-3 0  9994",
        "tle_line2": "2 25397  98.9917 326.8279 0002137  62.2471 297.8923 14.24375772424353"
      },
      "geometry": {
        "type": "Point",
        "coordinates": [
          -25.215954855741987,
          -39.085090006095605
        ]
      }
    },
    {
      "type": "Feature",
      "properties": {
        "norad_id": 25504,
        "name": "SCD 2",
        "group": "resource",
        "lat": -24.975175415769503,
        "lon": 66.26542893583006,
        "alt_km": 730.0193316283394,
        "timestamp": "2025-12-10T05:46:13.453463+00:00",
        "meta_object_name": "SCD 2",
        "meta_object_id": "1998-060A",
        "meta_epoch": "2025-12-09T18:41:38.027040",
        "meta_mean_motion": 14.45420959,
        "meta_eccentricity": 0.0016592,
        "meta_inclination": 24.9931,
        "meta_ra_of_asc_node": 160.1538,
        "meta_arg_of_pericenter": 281.9313,
        "meta_mean_anomaly": 100.7711,
        "meta_ephemeris_type": 0,
        "meta_classification_type": "U",
        "meta_norad_cat_id": 25504,
        "meta_element_set_no": 999,
        "meta_rev_at_epoch": 43289,
        "meta_bstar": 0.0001259,
        "meta_mean_motion_dot": 6.33e-06,
        "meta_mean_motion_ddot": 0,
        "tle_line1": "1 25504U 98060A   25343.77891235  .00000633  00000+0  12590-3 0  9999",
        "tle_line2": "2 25504  24.9931 160.1538 0016592 281.9313 100.7711 14.45420959432896"
      },
      "geometry": {
        "type": "Point",
        "coordinates": [
          66.26542893583006,
          -24.975175415769503
        ]
      }
    },
    {
      "type": "Feature",
      "properties": {
        "norad_id": 25757,
        "name": "DLR-TUBSAT",
        "group": "resource",
        "lat": -70.50162011298681,
        "lon": -5.841331778032207,
        "alt_km": 724.6947455443978,
        "timestamp": "2025-12-10T05:46:13.453475+00:00",
        "meta_object_name": "DLR-TUBSAT",
        "meta_object_id": "1999-029B",
        "meta_epoch": "2025-12-09T16:52:35.211648",
        "meta_mean_motion": 14.52355963,
        "meta_eccentricity": 0.0013728,
        "meta_inclination": 98.656,
        "meta_ra_of_asc_node": 328.1233,
        "meta_arg_of_pericenter": 202.2533,
        "meta_mean_anomaly": 157.8067,
        "meta_ephemeris_type": 0,
        "meta_classification_type": "U",
        "meta_norad_cat_id": 25757,
        "meta_element_set_no": 999,
        "meta_rev_at_epoch": 40574,
        "meta_bstar": 8.0486e-05,
        "meta_mean_motion_dot": 2.8e-06,
        "meta_mean_motion_ddot": 0,
        "tle_line1": "1 25757U 99029B   25343.70318532  .00000280  00000+0  80486-4 0  9990",
        "tle_line2": "2 25757  98.6560 328.1233 0013728 202.2533 157.8067 14.52355963405749"
      },
      "geometry": {
        "type": "Point",
        "coordinates": [
          -5.841331778032207,
          -70.50162011298681
        ]
      }
    },
    {
      "type": "Feature",
      "properties": {
        "norad_id": 25994,
        "name": "TERRA",
        "group": "resource",
        "lat": -81.08086648208933,
        "lon": 99.30716684986476,
        "alt_km": 700.1535720088486,
        "timestamp": "2025-12-10T05:46:13.453487+00:00",
        "meta_object_name": "TERRA",
        "meta_object_id": "1999-068A",
        "meta_epoch": "2025-12-09T19:09:34.428096",
        "meta_mean_motion": 14.60897092,
        "meta_eccentricity": 0.0003584,
        "meta_inclination": 97.9752,
        "meta_ra_of_asc_node": 35.5908,
        "meta_arg_of_pericenter": 100.1248,
        "meta_mean_anomaly": 10.0634,
        "meta_ephemeris_type": 0,
        "meta_classification_type": "U",
        "meta_norad_cat_id": 25994,
        "meta_element_set_no": 999,
        "meta_rev_at_epoch": 38195,
        "meta_bstar": 0.00017702,
        "meta_mean_motion_dot": 8.22e-06,
        "meta_mean_motion_ddot": 0,
        "tle_line1": "1 25994U 99068A   25343.79831514  .00000822  00000+0  17702-3 0  9997",
        "tle_line2": "2 25994  97.9752  35.5908 0003584 100.1248  10.0634 14.60897092381952"
      },
      "geometry": {
        "type": "Point",
        "coordinates": [
          99.30716684986476,
          -81.08086648208933
        ]
      }
    },
    {
      "type": "Feature",
      "properties": {
        "norad_id": 27004,
        "name": "MAROC-TUBSAT",
        "group": "resource",
        "lat": -2.9340966521092198,
        "lon": 153.14849424195992,
        "alt_km": 1001.8948412032778,
        "timestamp": "2025-12-10T05:46:13.453498+00:00",
        "meta_object_name": "MAROC-TUBSAT",
        "meta_object_id": "2001-056D",
        "meta_epoch": "2025-12-09T17:38:08.402208",
        "meta_mean_motion": 13.70252674,
        "meta_eccentricity": 0.0019088,
        "meta_inclination": 99.7912,
        "meta_ra_of_asc_node": 152.1272,
        "meta_arg_of_pericenter": 268.1363,
        "meta_mean_anomaly": 115.929,
        "meta_ephemeris_type": 0,
        "meta_classification_type": "U",
        "meta_norad_cat_id": 27004,
        "meta_element_set_no": 999,
        "meta_rev_at_epoch": 20024,
        "meta_bstar": 4.6196e-05,
        "meta_mean_motion_dot": -6e-08,
        "meta_mean_motion_ddot": 0,
        "tle_line1": "1 27004U 01056D   25343.73481947 -.00000006  00000+0  46196-4 0  9991",
        "tle_line2": "2 27004  99.7912 152.1272 0019088 268.1363 115.9290 13.70252674200249"
      },
      "geometry": {
        "type": "Point",
        "coordinates": [
          153.14849424195992,
          -2.9340966521092198
        ]
      }
    },
    {
      "type": "Feature",
      "properties": {
        "norad_id": 27424,
        "name": "AQUA",
        "group": "resource",
        "lat": 38.5622272875279,
        "lon": 131.84679854531984,
        "alt_km": 683.8629521923795,
        "timestamp": "2025-12-10T05:46:13.453509+00:00",
        "meta_object_name": "AQUA",
        "meta_object_id": "2002-022A",
        "meta_epoch": "2025-12-09T21:02:12.331104",
        "meta_mean_motion": 14.61799118,
        "meta_eccentricity": 9.79e-05,
        "meta_inclination": 98.4034,
        "meta_ra_of_asc_node": 304.7091,
        "meta_arg_of_pericenter": 114.1879,
        "meta_mean_anomaly": 272.7648,
        "meta_ephemeris_type": 0,
        "meta_classification_type": "U",
        "meta_norad_cat_id": 27424,
        "meta_element_set_no": 999,
        "meta_rev_at_epoch": 25561,
        "meta_bstar": 0.0003959,
        "meta_mean_motion_dot": 1.927e-05,
        "meta_mean_motion_ddot": 0,
        "tle_line1": "1 27424U 02022A   25343.87653161  .00001927  00000+0  39590-3 0  9996",
        "tle_line2": "2 27424  98.4034 304.7091 0000979 114.1879 272.7648 14.61799118255611"
      },
      "geometry": {
        "type": "Point",
        "coordinates": [
          131.84679854531984,
          38.5622272875279
        ]
      }
    }
  ]
}